STARLINK-31532          
1 59349U 24060B   25213.01592949  .00006679  00000+0  25195-3 0  9996
2 59349  42.9997  66.1083 0001299 292.3280  67.7434 15.27586602 76357
STARLINK-31593          
1 59350U 24060C   25212.00558202 -.00000225  00000+0  13634-5 0  9999
2 59350  43.0039  71.4247 0001855 274.5843  85.4796 15.27576482 76166
STARLINK-31555          
1 59351U 24060D   25212.95824167  .00001171  00000+0  52046-4 0  9999
2 59351  43.0008  66.5381 0001095 292.4337  67.6399 15.27592510 76341
STARLINK-31561          
1 59352U 24060E   25212.98379765  .00000785  00000+0  38060-4 0  9992
2 59352  43.0050  65.8651 0001544 278.5771  81.4905 15.27583639 76290
STARLINK-31413          
1 59353U 24060F   25212.99793941  .00006441  00000+0  24353-3 0  9994
2 59353  43.0040  65.9704 0001378 283.3145  76.7553 15.27559271 76307
STARLINK-31422          
1 59354U 24060G   25212.98009944 -.00000673  00000+0 -14920-4 0  9990
2 59354  43.0034  66.6958 0001800 247.0387 113.0275 15.27573960 76290
STARLINK-31416          
1 59355U 24060H   25213.01977594 -.00007000  00000+0 -24481-3 0  9994
2 59355  43.0042  66.1298 0001038 282.0813  77.9923 15.27614973 76308
STARLINK-31552          
1 59356U 24060J   25212.97624417 -.00000392  00000+0 -47141-5 0  9999
2 59356  43.0057  66.6801 0001069 261.8791  98.1939 15.27575179 76300
STARLINK-31557          
1 59357U 24060K   25212.97015327 -.00001650  00000+0 -50455-4 0  9993
2 59357  43.0054  62.2673 0001343 285.0802  74.9901 15.27581910 76359
STARLINK-31559          
1 59358U 24060L   25212.94026470 -.00000130  00000+0  48126-5 0  9996
2 59358  43.0015  66.3937 0001854 259.3867 100.6776 15.27575304 76309
STARLINK-31501          
1 59359U 24060M   25211.98773320  .00003593  00000+0  14013-3 0  9994
2 59359  43.0028  72.1503 0001529 264.6664  95.4013 15.27556406 76140
STARLINK-31549          
1 59360U 24060N   25212.99408788  .00014951  00000+0  55295-3 0  9998
2 59360  43.0054  65.9386 0000889 292.1292  67.9465 15.27506314 76318
STARLINK-31560          
1 59361U 24060P   25212.96211072 -.00000923  00000+0 -24011-4 0  9993
2 59361  43.0038  66.5612 0000672 333.7952  26.2866 15.27580404 76297
STARLINK-31571          
1 59362U 24060Q   25211.98387346  .00002717  00000+0  10820-3 0  9996
2 59362  43.0022  72.1196 0001550 267.4561  92.6113 15.27592254 76159
STARLINK-31553          
1 59363U 24060R   25212.95407158  .00000166  00000+0  15567-4 0  9999
2 59363  43.0080  59.5645 0001264 270.3165  89.7542 15.27581692 76389
STARLINK-31547          
1 59364U 24060S   25212.94156346 -.00000200  00000+0  22576-5 0  9998
2 59364  43.0033  55.1615 0001167 282.9647  77.1074 15.27579455 76434
STARLINK-31537          
1 59365U 24060T   25212.97239153  .00000770  00000+0  37499-4 0  9990
2 59365  43.0066  66.6306 0000569 299.9316  60.1479 15.27576249 76306
