[{"OBJECT_NAME":"STARLINK-31532","OBJECT_ID":"2024-060B","EPOCH":"2025-08-01T00:22:56.307936","MEAN_MOTION":15.27586602,"ECCENTRICITY":0.0001299,"INCLINATION":42.9997,"RA_OF_ASC_NODE":66.1083,"ARG_OF_PERICENTER":292.328,"MEAN_ANOMALY":67.7434,"EPHEMERIS_TYPE":0,"CLASSIFICATION_TYPE":"U","NORAD_CAT_ID":59349,"ELEMENT_SET_NO":999,"REV_AT_EPOCH":7635,"BSTAR":0.00025195,"MEAN_MOTION_DOT":6.679e-5,"MEAN_MOTION_DDOT":0},{"OBJECT_NAME":"STARLINK-31593","OBJECT_ID":"2024-060C","EPOCH":"2025-07-31T00:08:02.286528","MEAN_MOTION":15.27576482,"ECCENTRICITY":0.0001855,"INCLINATION":43.0039,"RA_OF_ASC_NODE":71.4247,"ARG_OF_PERICENTER":274.5843,"MEAN_ANOMALY":85.4796,"EPHEMERIS_TYPE":0,"CLASSIFICATION_TYPE":"U","NORAD_CAT_ID":59350,"ELEMENT_SET_NO":999,"REV_AT_EPOCH":7616,"BSTAR":1.3634e-6,"MEAN_MOTION_DOT":-2.25e-6,"MEAN_MOTION_DDOT":0},{"OBJECT_NAME":"STARLINK-31555","OBJECT_ID":"2024-060D","EPOCH":"2025-07-31T22:59:52.080288","MEAN_MOTION":15.2759251,"ECCENTRICITY":0.0001095,"INCLINATION":43.0008,"RA_OF_ASC_NODE":66.5381,"ARG_OF_PERICENTER":292.4337,"MEAN_ANOMALY":67.6399,"EPHEMERIS_TYPE":0,"CLASSIFICATION_TYPE":"U","NORAD_CAT_ID":59351,"ELEMENT_SET_NO":999,"REV_AT_EPOCH":7634,"BSTAR":5.2046e-5,"MEAN_MOTION_DOT":1.171e-5,"MEAN_MOTION_DDOT":0},{"OBJECT_NAME":"STARLINK-31561","OBJECT_ID":"2024-060E","EPOCH":"2025-07-31T23:36:40.116960","MEAN_MOTION":15.27583639,"ECCENTRICITY":0.0001544,"INCLINATION":43.005,"RA_OF_ASC_NODE":65.8651,"ARG_OF_PERICENTER":278.5771,"MEAN_ANOMALY":81.4905,"EPHEMERIS_TYPE":0,"CLASSIFICATION_TYPE":"U","NORAD_CAT_ID":59352,"ELEMENT_SET_NO":999,"REV_AT_EPOCH":7629,"BSTAR":3.806e-5,"MEAN_MOTION_DOT":7.85e-6,"MEAN_MOTION_DDOT":0},{"OBJECT_NAME":"STARLINK-31413","OBJECT_ID":"2024-060F","EPOCH":"2025-07-31T23:57:01.965024","MEAN_MOTION":15.27559271,"ECCENTRICITY":0.0001378,"INCLINATION":43.004,"RA_OF_ASC_NODE":65.9704,"ARG_OF_PERICENTER":283.3145,"MEAN_ANOMALY":76.7553,"EPHEMERIS_TYPE":0,"CLASSIFICATION_TYPE":"U","NORAD_CAT_ID":59353,"ELEMENT_SET_NO":999,"REV_AT_EPOCH":7630,"BSTAR":0.00024353,"MEAN_MOTION_DOT":6.441e-5,"MEAN_MOTION_DDOT":0},{"OBJECT_NAME":"STARLINK-31422","OBJECT_ID":"2024-060G","EPOCH":"2025-07-31T23:31:20.591616","MEAN_MOTION":15.2757396,"ECCENTRICITY":0.00018,"INCLINATION":43.0034,"RA_OF_ASC_NODE":66.6958,"ARG_OF_PERICENTER":247.0387,"MEAN_ANOMALY":113.0275,"EPHEMERIS_TYPE":0,"CLASSIFICATION_TYPE":"U","NORAD_CAT_ID":59354,"ELEMENT_SET_NO":999,"REV_AT_EPOCH":7629,"BSTAR":-1.492e-5,"MEAN_MOTION_DOT":-6.73e-6,"MEAN_MOTION_DDOT":0},{"OBJECT_NAME":"STARLINK-31416","OBJECT_ID":"2024-060H","EPOCH":"2025-08-01T00:28:28.641216","MEAN_MOTION":15.27614973,"ECCENTRICITY":0.0001038,"INCLINATION":43.0042,"RA_OF_ASC_NODE":66.1298,"ARG_OF_PERICENTER":282.0813,"MEAN_ANOMALY":77.9923,"EPHEMERIS_TYPE":0,"CLASSIFICATION_TYPE":"U","NORAD_CAT_ID":59355,"ELEMENT_SET_NO":999,"REV_AT_EPOCH":7630,"BSTAR":-0.00024481,"MEAN_MOTION_DOT":-7.0e-5,"MEAN_MOTION_DDOT":0},{"OBJECT_NAME":"STARLINK-31552","OBJECT_ID":"2024-060J","EPOCH":"2025-07-31T23:25:47.496288","MEAN_MOTION":15.27575179,"ECCENTRICITY":0.0001069,"INCLINATION":43.0057,"RA_OF_ASC_NODE":66.6801,"ARG_OF_PERICENTER":261.8791,"MEAN_ANOMALY":98.1939,"EPHEMERIS_TYPE":0,"CLASSIFICATION_TYPE":"U","NORAD_CAT_ID":59356,"ELEMENT_SET_NO":999,"REV_AT_EPOCH":7630,"BSTAR":-4.7141e-6,"MEAN_MOTION_DOT":-3.92e-6,"MEAN_MOTION_DDOT":0},{"OBJECT_NAME":"STARLINK-31557","OBJECT_ID":"2024-060K","EPOCH":"2025-07-31T23:17:01.242528","MEAN_MOTION":15.2758191,"ECCENTRICITY":0.0001343,"INCLINATION":43.0054,"RA_OF_ASC_NODE":62.2673,"ARG_OF_PERICENTER":285.0802,"MEAN_ANOMALY":74.9901,"EPHEMERIS_TYPE":0,"CLASSIFICATION_TYPE":"U","NORAD_CAT_ID":59357,"ELEMENT_SET_NO":999,"REV_AT_EPOCH":7635,"BSTAR":-5.0455e-5,"MEAN_MOTION_DOT":-1.65e-5,"MEAN_MOTION_DDOT":0},{"OBJECT_NAME":"STARLINK-31559","OBJECT_ID":"2024-060L","EPOCH":"2025-07-31T22:33:58.870080","MEAN_MOTION":15.27575304,"ECCENTRICITY":0.0001854,"INCLINATION":43.0015,"RA_OF_ASC_NODE":66.3937,"ARG_OF_PERICENTER":259.3867,"MEAN_ANOMALY":100.6776,"EPHEMERIS_TYPE":0,"CLASSIFICATION_TYPE":"U","NORAD_CAT_ID":59358,"ELEMENT_SET_NO":999,"REV_AT_EPOCH":7630,"BSTAR":4.8126e-6,"MEAN_MOTION_DOT":-1.3e-6,"MEAN_MOTION_DDOT":0},{"OBJECT_NAME":"STARLINK-31501","OBJECT_ID":"2024-060M","EPOCH":"2025-07-30T23:42:20.148480","MEAN_MOTION":15.27556406,"ECCENTRICITY":0.0001529,"INCLINATION":43.0028,"RA_OF_ASC_NODE":72.1503,"ARG_OF_PERICENTER":264.6664,"MEAN_ANOMALY":95.4013,"EPHEMERIS_TYPE":0,"CLASSIFICATION_TYPE":"U","NORAD_CAT_ID":59359,"ELEMENT_SET_NO":999,"REV_AT_EPOCH":7614,"BSTAR":0.00014013,"MEAN_MOTION_DOT":3.593e-5,"MEAN_MOTION_DDOT":0},{"OBJECT_NAME":"STARLINK-31549","OBJECT_ID":"2024-060N","EPOCH":"2025-07-31T23:51:29.192832","MEAN_MOTION":15.27506314,"ECCENTRICITY":8.89e-5,"INCLINATION":43.0054,"RA_OF_ASC_NODE":65.9386,"ARG_OF_PERICENTER":292.1292,"MEAN_ANOMALY":67.9465,"EPHEMERIS_TYPE":0,"CLASSIFICATION_TYPE":"U","NORAD_CAT_ID":59360,"ELEMENT_SET_NO":999,"REV_AT_EPOCH":7631,"BSTAR":0.00055295,"MEAN_MOTION_DOT":0.00014951,"MEAN_MOTION_DDOT":0},{"OBJECT_NAME":"STARLINK-31560","OBJECT_ID":"2024-060P","EPOCH":"2025-07-31T23:05:26.366208","MEAN_MOTION":15.27580404,"ECCENTRICITY":6.72e-5,"INCLINATION":43.0038,"RA_OF_ASC_NODE":66.5612,"ARG_OF_PERICENTER":333.7952,"MEAN_ANOMALY":26.2866,"EPHEMERIS_TYPE":0,"CLASSIFICATION_TYPE":"U","NORAD_CAT_ID":59361,"ELEMENT_SET_NO":999,"REV_AT_EPOCH":7629,"BSTAR":-2.4011e-5,"MEAN_MOTION_DOT":-9.23e-6,"MEAN_MOTION_DDOT":0},{"OBJECT_NAME":"STARLINK-31571","OBJECT_ID":"2024-060Q","EPOCH":"2025-07-30T23:36:46.666944","MEAN_MOTION":15.27592254,"ECCENTRICITY":0.000155,"INCLINATION":43.0022,"RA_OF_ASC_NODE":72.1196,"ARG_OF_PERICENTER":267.4561,"MEAN_ANOMALY":92.6113,"EPHEMERIS_TYPE":0,"CLASSIFICATION_TYPE":"U","NORAD_CAT_ID":59362,"ELEMENT_SET_NO":999,"REV_AT_EPOCH":7615,"BSTAR":0.0001082,"MEAN_MOTION_DOT":2.717e-5,"MEAN_MOTION_DDOT":0},{"OBJECT_NAME":"STARLINK-31553","OBJECT_ID":"2024-060R","EPOCH":"2025-07-31T22:53:51.784512","MEAN_MOTION":15.27581692,"ECCENTRICITY":0.0001264,"INCLINATION":43.008,"RA_OF_ASC_NODE":59.5645,"ARG_OF_PERICENTER":270.3165,"MEAN_ANOMALY":89.7542,"EPHEMERIS_TYPE":0,"CLASSIFICATION_TYPE":"U","NORAD_CAT_ID":59363,"ELEMENT_SET_NO":999,"REV_AT_EPOCH":7638,"BSTAR":1.5567e-5,"MEAN_MOTION_DOT":1.66e-6,"MEAN_MOTION_DDOT":0},{"OBJECT_NAME":"STARLINK-31547","OBJECT_ID":"2024-060S","EPOCH":"2025-07-31T22:35:51.082944","MEAN_MOTION":15.27579455,"ECCENTRICITY":0.0001167,"INCLINATION":43.0033,"RA_OF_ASC_NODE":55.1615,"ARG_OF_PERICENTER":282.9647,"MEAN_ANOMALY":77.1074,"EPHEMERIS_TYPE":0,"CLASSIFICATION_TYPE":"U","NORAD_CAT_ID":59364,"ELEMENT_SET_NO":999,"REV_AT_EPOCH":7643,"BSTAR":2.2576e-6,"MEAN_MOTION_DOT":-2.0e-6,"MEAN_MOTION_DDOT":0},{"OBJECT_NAME":"STARLINK-31537","OBJECT_ID":"2024-060T","EPOCH":"2025-07-31T23:20:14.628192","MEAN_MOTION":15.27576249,"ECCENTRICITY":5.69e-5,"INCLINATION":43.0066,"RA_OF_ASC_NODE":66.6306,"ARG_OF_PERICENTER":299.9316,"MEAN_ANOMALY":60.1479,"EPHEMERIS_TYPE":0,"CLASSIFICATION_TYPE":"U","NORAD_CAT_ID":59365,"ELEMENT_SET_NO":999,"REV_AT_EPOCH":7630,"BSTAR":3.7499e-5,"MEAN_MOTION_DOT":7.7e-6,"MEAN_MOTION_DDOT":0}]
